{"type": "FeatureCollection", "features": [ {"type": "Feature", "properties": {"norad_id": 47052, "name": "COSMOS 2251 DEB", "group": "cosmos-2251-debris", "lat": 60.693104584406285, "lon": -15.485981914440849, "alt_km": 735.3894641512761, "timestamp": "2025-12-27T03:58:44.545029+00:00", "meta": {"OBJECT_NAME": "COSMOS 2251 DEB", "OBJECT_ID": "1993-036BXG", "EPOCH": "2025-12-26T15:07:30.448992", "MEAN_MOTION": 14.35506302, "ECCENTRICITY": 0.0058529, "INCLINATION": 74.0497, "RA_OF_ASC_NODE": 314.8656, "ARG_OF_PERICENTER": 25.3344, "MEAN_ANOMALY": 152.6932, "EPHEMERIS_TYPE": 0, "CLASSIFICATION_TYPE": "U", "NORAD_CAT_ID": 47052, "ELEMENT_SET_NO": 999, "REV_AT_EPOCH": 61988, "BSTAR": 0.0003685, "MEAN_MOTION_DOT": 1.055e-05, "MEAN_MOTION_DDOT": 0}, "tle": {"line1": "1 47052U 93036BXG 25360.63021353  .00001055  00000+0  36850-3 0  9993", "line2": "2 47052  74.0497 314.8656 0058529  25.3344 152.6932 14.35506302619883"}}, "geometry": {"type": "Point", "coordinates": [-15.485981914440849, 60.693104584406285]}}, {"type": "Feature", "properties": {"norad_id": 47053, "name": "COSMOS 2251 DEB", "group": "cosmos-2251-debris", "lat": -41.368741920378625, "lon": 65.29101029172139, "alt_km": 1322.611317672544, "timestamp": "2025-12-27T03:58:44.545038+00:00", "meta": {"OBJECT_NAME": "COSMOS 2251 DEB", "OBJECT_ID": "1993-036BXH", "EPOCH": "2025-12-21T23:22:14.227392", "MEAN_MOTION": 13.59701409, "ECCENTRICITY": 0.03775476, "INCLINATION": 74.0593, "RA_OF_ASC_NODE": 239.1144, "ARG_OF_PERICENTER": 50.5889, "MEAN_ANOMALY": 327.7768, "EPHEMERIS_TYPE": 0, "CLASSIFICATION_TYPE": "U", "NORAD_CAT_ID": 47053, "ELEMENT_SET_NO": 999, "REV_AT_EPOCH": 29014, "BSTAR": 0.0013674764, "MEAN_MOTION_DOT": 1.606e-05, "MEAN_MOTION_DDOT": 0}, "tle": {"line1": "1 47053U 93036BXH 25355.97377578  .00001606  00000+0  13675-2 0  9999", "line2": "2 47053  74.0593 239.1144 0377547  50.5889 327.7768 13.59701409290146"}}, "geometry": {"type": "Point", "coordinates": [65.29101029172139, -41.368741920378625]}}, {"type": "Feature", "properties": {"norad_id": 47059, "name": "COSMOS 2251 DEB", "group": "cosmos-2251-debris", "lat": 43.942943552297265, "lon": 9.319326338998307, "alt_km": 524.433159179488, "timestamp": "2025-12-27T03:58:44.545047+00:00", "meta": {"OBJECT_NAME": "COSMOS 2251 DEB", "OBJECT_ID": "1993-036BXP", "EPOCH": "2025-12-16T01:10:48.054720", "MEAN_MOTION": 15.13144812, "ECCENTRICITY": 0.00128667, "INCLINATION": 73.98, "RA_OF_ASC_NODE": 228.534, "ARG_OF_PERICENTER": 42.2566, "MEAN_ANOMALY": 26.5019, "EPHEMERIS_TYPE": 0, "CLASSIFICATION_TYPE": "U", "NORAD_CAT_ID": 47059, "ELEMENT_SET_NO": 999, "REV_AT_EPOCH": 8355, "BSTAR": 0.0018804977, "MEAN_MOTION_DOT": 0.00033522, "MEAN_MOTION_DDOT": 0}, "tle": {"line1": "1 47059U 93036BXP 25350.04916730  .00033522  00000+0  18805-2 0  9999", "line2": "2 47059  73.9800 228.5340 0012866  42.2566  26.5019 15.13144812 83550"}}, "geometry": {"type": "Point", "coordinates": [9.319326338998307, 43.942943552297265]}}, {"type": "Feature", "properties": {"norad_id": 47062, "name": "COSMOS 2251 DEB", "group": "cosmos-2251-debris", "lat": 29.455422215540256, "lon": 63.66053442317431, "alt_km": 1185.9551327006484, "timestamp": "2025-12-27T03:58:44.545056+00:00", "meta": {"OBJECT_NAME": "COSMOS 2251 DEB", "OBJECT_ID": "1993-036BXS", "EPOCH": "2025-12-23T10:39:12.732768", "MEAN_MOTION": 13.71972492, "ECCENTRICITY": 0.03225336, "INCLINATION": 74.0838, "RA_OF_ASC_NODE": 60.5229, "ARG_OF_PERICENTER": 184.1282, "MEAN_ANOMALY": 192.9276, "EPHEMERIS_TYPE": 0, "CLASSIFICATION_TYPE": "U", "NORAD_CAT_ID": 47062, "ELEMENT_SET_NO": 999, "REV_AT_EPOCH": 55749, "BSTAR": 0.00088691048, "MEAN_MOTION_DOT": 1.145e-05, "MEAN_MOTION_DDOT": 0}, "tle": {"line1": "1 47062U 93036BXS 25357.44389737  .00001145  00000+0  88691-3 0  9992", "line2": "2 47062  74.0838  60.5229 0322533 184.1282 192.9276 13.71972492557490"}}, "geometry": {"type": "Point", "coordinates": [63.66053442317431, 29.455422215540256]}}, {"type": "Feature", "properties": {"norad_id": 47068, "name": "COSMOS 2251 DEB", "group": "cosmos-2251-debris", "lat": 44.577432294992406, "lon": -167.37928476467405, "alt_km": 721.559805405167, "timestamp": "2025-12-27T03:58:44.545065+00:00", "meta": {"OBJECT_NAME": "COSMOS 2251 DEB", "OBJECT_ID": "1993-036BXY", "EPOCH": "2025-12-23T18:48:26.675712", "MEAN_MOTION": 14.5321924, "ECCENTRICITY": 0.00182523, "INCLINATION": 74.0229, "RA_OF_ASC_NODE": 182.6094, "ARG_OF_PERICENTER": 268.9678, "MEAN_ANOMALY": 90.9393, "EPHEMERIS_TYPE": 0, "CLASSIFICATION_TYPE": "U", "NORAD_CAT_ID": 47068, "ELEMENT_SET_NO": 999, "REV_AT_EPOCH": 61917, "BSTAR": 0.00081306022, "MEAN_MOTION_DOT": 3.351e-05, "MEAN_MOTION_DDOT": 0}, "tle": {"line1": "1 47068U 93036BXY 25357.78364208  .00003351  00000+0  81306-3 0  9998", "line2": "2 47068  74.0229 182.6094 0018252 268.9678  90.9393 14.53219240619173"}}, "geometry": {"type": "Point", "coordinates": [-167.37928476467405, 44.577432294992406]}}, {"type": "Feature", "properties": {"norad_id": 47073, "name": "COSMOS 2251 DEB", "group": "cosmos-2251-debris", "lat": -35.09163698583469, "lon": 8.312635111474837, "alt_km": 766.512477886261, "timestamp": "2025-12-27T03:58:44.545074+00:00", "meta": {"OBJECT_NAME": "COSMOS 2251 DEB", "OBJECT_ID": "1993-036BYD", "EPOCH": "2025-12-20T05:09:22.277088", "MEAN_MOTION": 14.04735867, "ECCENTRICITY": 0.0161533, "INCLINATION": 74.0811, "RA_OF_ASC_NODE": 188.8357, "ARG_OF_PERICENTER": 225.3344, "MEAN_ANOMALY": 133.4535, "EPHEMERIS_TYPE": 0, "CLASSIFICATION_TYPE": "U", "NORAD_CAT_ID": 47073, "ELEMENT_SET_NO": 999, "REV_AT_EPOCH": 60466, "BSTAR": 0.00045488, "MEAN_MOTION_DOT": 7.94e-06, "MEAN_MOTION_DDOT": 0}, "tle": {"line1": "1 47073U 93036BYD 25354.21484117  .00000794  00000+0  45488-3 0  9990", "line2": "2 47073  74.0811 188.8357 0161533 225.3344 133.4535 14.04735867604667"}}, "geometry": {"type": "Point", "coordinates": [8.312635111474837, -35.09163698583469]}}, {"type": "Feature", "properties": {"norad_id": 47074, "name": "COSMOS 2251 DEB", "group": "cosmos-2251-debris", "lat": 6.906859757318435, "lon": 100.34557025139873, "alt_km": 846.0170535610387, "timestamp": "2025-12-27T03:58:44.545103+00:00", "meta": {"OBJECT_NAME": "COSMOS 2251 DEB", "OBJECT_ID": "1993-036BYE", "EPOCH": "2025-12-24T01:39:06.472224", "MEAN_MOTION": 14.35696552, "ECCENTRICITY": 0.01448361, "INCLINATION": 74.0936, "RA_OF_ASC_NODE": 287.9879, "ARG_OF_PERICENTER": 313.5556, "MEAN_ANOMALY": 59.972, "EPHEMERIS_TYPE": 0, "CLASSIFICATION_TYPE": "U", "NORAD_CAT_ID": 47074, "ELEMENT_SET_NO": 999, "REV_AT_EPOCH": 2845, "BSTAR": 0.0011703787, "MEAN_MOTION_DOT": 3.781e-05, "MEAN_MOTION_DDOT": 0}, "tle": {"line1": "1 47074U 93036BYE 25358.06882491  .00003781  00000+0  11704-2 0  9997", "line2": "2 47074  74.0936 287.9879 0144836 313.5556  59.9720 14.35696552 28454"}}, "geometry": {"type": "Point", "coordinates": [100.34557025139873, 6.906859757318435]}}, {"type": "Feature", "properties": {"norad_id": 47116, "name": "COSMOS 2251 DEB", "group": "cosmos-2251-debris", "lat": 40.351846475041, "lon": -134.46334580401123, "alt_km": 569.3414658729162, "timestamp": "2025-12-27T03:58:44.545112+00:00", "meta": {"OBJECT_NAME": "COSMOS 2251 DEB", "OBJECT_ID": "1993-036BYJ", "EPOCH": "2025-12-22T09:13:54.172992", "MEAN_MOTION": 14.98590739, "ECCENTRICITY": 0.00212329, "INCLINATION": 74.0216, "RA_OF_ASC_NODE": 221.1484, "ARG_OF_PERICENTER": 314.2258, "MEAN_ANOMALY": 222.9412, "EPHEMERIS_TYPE": 0, "CLASSIFICATION_TYPE": "U", "NORAD_CAT_ID": 47116, "ELEMENT_SET_NO": 999, "REV_AT_EPOCH": 59655, "BSTAR": 0.0021038728, "MEAN_MOTION_DOT": 0.000254, "MEAN_MOTION_DDOT": 0}, "tle": {"line1": "1 47116U 93036BYJ 25356.38465478  .00025400  00000+0  21039-2 0  9993", "line2": "2 47116  74.0216 221.1484 0021232 314.2258 222.9412 14.98590739596555"}}, "geometry": {"type": "Point", "coordinates": [-134.46334580401123, 40.351846475041]}}, {"type": "Feature", "properties": {"norad_id": 53093, "name": "COSMOS 2251 DEB", "group": "cosmos-2251-debris", "lat": 9.34536479603268, "lon": 92.0163356768594, "alt_km": 767.5972585983873, "timestamp": "2025-12-27T03:58:44.545121+00:00", "meta": {"OBJECT_NAME": "COSMOS 2251 DEB", "OBJECT_ID": "1993-036BYP", "EPOCH": "2025-12-26T20:31:55.322688", "MEAN_MOTION": 14.41957299, "ECCENTRICITY": 0.0019972, "INCLINATION": 74.0363, "RA_OF_ASC_NODE": 275.2913, "ARG_OF_PERICENTER": 350.2761, "MEAN_ANOMALY": 9.8005, "EPHEMERIS_TYPE": 0, "CLASSIFICATION_TYPE": "U", "NORAD_CAT_ID": 53093, "ELEMENT_SET_NO": 999, "REV_AT_EPOCH": 17929, "BSTAR": 0.00087977, "MEAN_MOTION_DOT": 2.865e-05, "MEAN_MOTION_DDOT": 0}, "tle": {"line1": "1 53093U 93036BYP 25360.85550142  .00002865  00000+0  87977-3 0  9998", "line2": "2 53093  74.0363 275.2913 0019972 350.2761   9.8005 14.41957299179297"}}, "geometry": {"type": "Point", "coordinates": [92.0163356768594, 9.34536479603268]}}]}